NORAD_CAT_ID,OBJECT_NAME,OBJECT_TYPE,EPOCH,MEAN_MOTION,ECCENTRICITY,INCLINATION,RA_OF_ASC_NODE,ARG_OF_PERICENTER,MEAN_ANOMALY,BSTAR,MEAN_MOTION_DOT,MEAN_MOTION_DDOT,TLE_LINE0,TLE_LINE1,TLE_LINE2,SEMIMAJOR_AXIS,PERIOD,APOGEE,PERIGEE,DECAYED
55780.0,STARLINK-5819,PAYLOAD,2023-12-09 20:25:55,14.98319347,0.0002843,69.9986,133.9109,281.616,78.468,0.00018404,2.103e-05,0.0,0 STARLINK-5819,1 55780U 23028AR  23343.85133667  .00002103  00000-0  18404-3 0  9990,2 55780  69.9986 133.9109 0002843 281.6160  78.4680 14.98319347 43583,6950.226,96.108,574.067,570.115,0.0
55780.0,STARLINK-5819,PAYLOAD,2023-12-10 12:27:15,14.98332741,0.0003,69.9994,132.2307,284.0481,76.0344,0.00011695,1.303e-05,0.0,0 STARLINK-5819,1 55780U 23028AR  23344.51893252  .00001303  00000-0  11695-3 0  9993,2 55780  69.9994 132.2307 0003000 284.0481  76.0344 14.98332741 43688,6950.184,96.107,574.134,569.964,0.0
55780.0,STARLINK-5819,PAYLOAD,2023-12-10 14:03:23,14.983331,0.0002989,69.9992,132.0622,283.7018,76.3808,0.00011742,1.308e-05,0.0,0 STARLINK-5819,1 55780U 23028AR  23344.58569213  .00001308  00000-0  11742-3 0  9995,2 55780  69.9992 132.0622 0002989 283.7018  76.3808 14.98333100 43690,6950.183,96.107,574.126,569.971,0.0
55780.0,STARLINK-5819,PAYLOAD,2023-12-10 20:27:55,14.98335871,0.0002935,69.9992,131.3886,283.6022,76.4809,0.00013635,1.534e-05,0.0,0 STARLINK-5819,1 55780U 23028AR  23344.85272889  .00001534  00000-0  13635-3 0  9999,2 55780  69.9992 131.3886 0002935 283.6022  76.4809 14.98335871 43733,6950.175,96.107,574.08,570.0,0.0
55780.0,STARLINK-5819,PAYLOAD,2023-12-11 10:53:07,14.98342736,0.0003082,69.9991,129.8736,286.476,73.6061,8.8677e-05,9.66e-06,0.0,0 STARLINK-5819,1 55780U 23028AR  23345.45356250  .00000966  00000-0  88677-4 0  9998,2 55780  69.9991 129.8736 0003082 286.4760  73.6061 14.98342736 43829,6950.154,96.106,574.161,569.876,0.0
55780.0,STARLINK-5819,PAYLOAD,2023-12-11 14:05:23,14.98343061,0.0003075,69.9991,129.5369,286.0279,74.0541,8.9954e-05,9.81e-06,0.0,0 STARLINK-5819,1 55780U 23028AR  23345.58708110  .00000981  00000-0  89954-4 0  9994,2 55780  69.9991 129.5369 0003075 286.0279  74.0541 14.98343061 43843,6950.153,96.106,574.155,569.88,0.0
55780.0,STARLINK-5819,PAYLOAD,2023-12-11 18:53:47,14.98345237,0.0003003,69.9991,129.0318,284.4193,75.6632,0.00011308,1.257e-05,0.0,0 STARLINK-5819,1 55780U 23028AR  23345.78735709  .00001257  00000-0  11308-3 0  9994,2 55780  69.9991 129.0318 0003003 284.4193  75.6632 14.98345237 43878,6950.146,96.106,574.098,569.924,0.0
55780.0,STARLINK-5819,PAYLOAD,2023-12-12 10:55:08,14.98339088,0.0002496,70.0001,127.35,274.2063,85.8811,-1.7741e-05,-3.05e-06,0.0,0 STARLINK-5819,1 55780U 23028AR  23346.45495902 -.00000305  00000-0 -17741-4 0  9990,2 55780  70.0001 127.3500 0002496 274.2063  85.8811 14.98339088 43975,6950.165,96.106,573.765,570.295,0.0
55780.0,STARLINK-5819,PAYLOAD,2023-12-12 14:07:24,14.9833689,0.0002759,69.9995,127.0122,277.8054,82.2791,-4.9364e-05,-6.82e-06,0.0,0 STARLINK-5819,1 55780U 23028AR  23346.58848045 -.00000682  00000-0 -49364-4 0  9998,2 55780  69.9995 127.0122 0002759 277.8054  82.2791 14.98336890 43990,6950.172,96.107,573.954,570.119,0.0
55780.0,STARLINK-5819,PAYLOAD,2023-12-12 18:55:48,14.98336239,0.0002797,69.9995,126.5074,278.2319,81.8522,-5.5633e-05,-7.57e-06,0.0,0 STARLINK-5819,1 55780U 23028AR  23346.78876003 -.00000757  00000-0 -55633-4 0  9994,2 55780  69.9995 126.5074 0002797 278.2319  81.8522 14.98336239 44020,6950.174,96.107,573.983,570.095,0.0
55780.0,STARLINK-5819,PAYLOAD,2023-12-13 10:57:09,14.98337872,0.0002564,70.0001,124.8256,267.1634,92.9232,-8.5593e-05,-1.114e-05,0.0,0 STARLINK-5819,1 55780U 23028AR  23347.45635579 -.00001114  00000-0 -85593-4 0  9996,2 55780  70.0001 124.8256 0002564 267.1634  92.9232 14.98337872 44129,6950.169,96.106,573.816,570.252,0.0
55780.0,STARLINK-5819,PAYLOAD,2023-12-13 14:09:25,14.98336466,0.000269,70.0,124.489,270.382,89.703,-0.00010206,-1.311e-05,0.0,0 STARLINK-5819,1 55780U 23028AR  23347.58987659 -.00001311  00000-0 -10206-3 0  9996,2 55780  70.0000 124.4890 0002690 270.3820  89.7030 14.98336466 44141,6950.173,96.107,573.907,570.168,0.0
55780.0,STARLINK-5819,PAYLOAD,2023-12-13 18:57:49,14.98335937,0.000263,70.0,123.9836,268.4694,91.6164,-9.8947e-05,-1.274e-05,0.0,0 STARLINK-5819,1 55780U 23028AR  23347.79015594 -.00001274  00000-0 -98947-4 0  9996,2 55780  70.0000 123.9836 0002630 268.4694  91.6164 14.98335937 44171,6950.175,96.107,573.867,570.212,0.0
55780.0,STARLINK-5819,PAYLOAD,2023-12-14 10:59:10,14.98329226,0.0002692,69.9999,122.3002,269.1261,90.9589,1.2972e-06,-7.7e-07,0.0,0 STARLINK-5819,1 55780U 23028AR  23348.45775588 -.00000077  00000-0  12972-5 0  9990,2 55780  69.9999 122.3002 0002692 269.1261  90.9589 14.98329226 44277,6950.195,96.107,573.931,570.189,0.0
55780.0,STARLINK-5819,PAYLOAD,2023-12-14 14:11:26,14.98328853,0.0002703,69.9999,121.9635,269.2432,90.8417,-2.8852e-06,-1.27e-06,0.0,0 STARLINK-5819,1 55780U 23028AR  23348.59127630 -.00000127  00000-0 -28852-5 0  9995,2 55780  69.9999 121.9635 0002703 269.2432  90.8417 14.98328853 44294,6950.196,96.107,573.94,570.183,0.0
55780.0,STARLINK-5819,PAYLOAD,2023-12-14 18:59:50,14.98330289,0.0002684,69.9999,121.4586,268.6968,91.3883,1.4073e-05,7.5e-07,0.0,0 STARLINK-5819,1 55780U 23028AR  23348.79155498  .00000075  00000-0  14073-4 0  9999,2 55780  69.9999 121.4586 0002684 268.6968  91.3883 14.98330289 44322,6950.192,96.107,573.922,570.192,0.0
55780.0,STARLINK-5819,PAYLOAD,2023-12-15 11:01:11,14.98326996,0.0002602,70.0002,119.7757,264.6149,95.4713,-3.7916e-06,-1.38e-06,0.0,0 STARLINK-5819,1 55780U 23028AR  23349.45915779 -.00000138  00000-0 -37916-5 0  9993,2 55780  70.0002 119.7757 0002602 264.6149  95.4713 14.98326996 44425,6950.202,96.107,573.876,570.259,0.0
55780.0,STARLINK-5819,PAYLOAD,2023-12-15 14:13:27,14.98326832,0.0002609,70.0002,119.439,264.3057,95.7804,-6.0405e-06,-1.65e-06,0.0,0 STARLINK-5819,1 55780U 23028AR  23349.59267822 -.00000165  00000-0 -60405-5 0  9996,2 55780  70.0002 119.4390 0002609 264.3057  95.7804 14.98326832 44442,6950.203,96.107,573.881,570.254,0.0
55780.0,STARLINK-5819,PAYLOAD,2023-12-15 19:01:51,14.98325916,0.0002672,70.0002,118.9341,267.4602,92.6251,-1.8313e-05,-3.11e-06,0.0,0 STARLINK-5819,1 55780U 23028AR  23349.79295980 -.00000311  00000-0 -18313-4 0  9997,2 55780  70.0002 118.9341 0002672 267.4602  92.6251 14.98325916 44479,6950.206,96.107,573.928,570.213,0.0
55780.0,STARLINK-5819,PAYLOAD,2023-12-16 11:03:11,14.98333401,0.0002859,69.9998,117.2504,269.9314,90.1517,3.9618e-05,3.8e-06,0.0,0 STARLINK-5819,1 55780U 23028AR  23350.46055354  .00000380  00000-0  39618-4 0  9997,2 55780  69.9998 117.2504 0002859 269.9314  90.1517 14.98333401 44574,6950.182,96.107,574.034,570.06,0.0
55780.0,STARLINK-5819,PAYLOAD,2023-12-16 14:15:27,14.98333578,0.000286,69.9998,116.9138,270.02,90.0632,4.1771e-05,4.05e-06,0.0,0 STARLINK-5819,1 55780U 23028AR  23350.59407322  .00000405  00000-0  41771-4 0  9998,2 55780  69.9998 116.9138 0002860 270.0200  90.0632 14.98333578 44596,6950.182,96.107,574.035,570.059,0.0
55780.0,STARLINK-5819,PAYLOAD,2023-12-16 17:27:43,14.98334438,0.0002846,69.9998,116.5772,269.8575,90.2258,5.1327e-05,5.2e-06,0.0,0 STARLINK-5819,1 55780U 23028AR  23350.72759213  .00000520  00000-0  51327-4 0  9998,2 55780  69.9998 116.5772 0002846 269.8575  90.2258 14.98334438 44616,6950.179,96.107,574.022,570.066,0.0
55780.0,STARLINK-5819,PAYLOAD,2023-12-17 12:41:21,14.98326983,0.0002879,70.0,114.5571,269.8493,90.2336,2.1219e-05,1.6e-06,0.0,0 STARLINK-5819,1 55780U 23028AR  23351.52871729  .00000160  00000-0  21219-4 0  9991,2 55780  70.0000 114.5571 0002879 269.8493  90.2336 14.98326983 44739,6950.202,96.107,574.068,570.066,0.0
55780.0,STARLINK-5819,PAYLOAD,2023-12-17 17:29:45,14.98323753,0.0002958,69.9998,114.0519,271.3854,88.6966,-2.1345e-05,-3.48e-06,0.0,0 STARLINK-5819,1 55780U 23028AR  23351.72900112 -.00000348  00000-0 -21345-4 0  9992,2 55780  69.9998 114.0519 0002958 271.3854  88.6966 14.98323753 44761,6950.212,96.107,574.133,570.021,0.0
55780.0,STARLINK-5819,PAYLOAD,2023-12-18 14:19:29,14.98334714,0.0003044,69.9998,111.8638,268.2371,91.844,-8.3561e-06,-1.93e-06,0.0,0 STARLINK-5819,1 55780U 23028AR  23352.59687343 -.00000193  00000-0 -83561-5 0  9993,2 55780  69.9998 111.8638 0003044 268.2371  91.8440 14.98334714 44890,6950.178,96.107,574.159,569.928,0.0
55780.0,STARLINK-5819,PAYLOAD,2023-12-18 17:31:45,14.98337853,0.0002932,70.0001,111.5279,263.3617,96.7208,3.243e-05,2.94e-06,0.0,0 STARLINK-5819,1 55780U 23028AR  23352.73038958  .00000294  00000-0  32430-4 0  9999,2 55780  70.0001 111.5279 0002932 263.3617  96.7208 14.98337853 44916,6950.169,96.106,574.071,569.996,0.0
55780.0,STARLINK-5819,PAYLOAD,2023-12-19 11:09:14,14.98326988,0.00028,70.0008,109.677,257.6187,102.4659,6.5859e-05,6.93e-06,0.0,0 STARLINK-5819,1 55780U 23028AR  23353.46475422  .00000693  00000-0  65859-4 0  9995,2 55780  70.0008 109.6770 0002800 257.6187 102.4659 14.98326988 45024,6950.202,96.107,574.013,570.121,0.0
55780.0,STARLINK-5819,PAYLOAD,2023-12-19 14:21:30,14.98328132,0.0002697,70.0013,109.3413,253.8959,106.1903,6.624e-05,6.97e-06,0.0,0 STARLINK-5819,1 55780U 23028AR  23353.59827353  .00000697  00000-0  66240-4 0  9992,2 55780  70.0013 109.3413 0002697 253.8959 106.1903 14.98328132 45048,6950.199,96.107,573.938,570.189,0.0
55780.0,STARLINK-5819,PAYLOAD,2023-12-20 11:11:16,14.98326304,0.0002778,70.0015,107.1536,265.7277,94.3565,-4.5687e-05,-6.38e-06,0.0,0 STARLINK-5819,1 55780U 23028AR  23354.46616014 -.00000638  00000-0 -45687-4 0  9998,2 55780  70.0015 107.1536 0002778 265.7277  94.3565 14.98326304 45172,6950.204,96.107,574.0,570.139,0.0
55780.0,STARLINK-5819,PAYLOAD,2023-12-20 14:23:32,14.98325116,0.0002882,70.0004,106.814,263.8004,96.2827,-4.8654e-05,-6.73e-06,0.0,0 STARLINK-5819,1 55780U 23028AR  23354.59968066 -.00000673  00000-0 -48654-4 0  9995,2 55780  70.0004 106.8140 0002882 263.8004  96.2827 14.98325116 45194,6950.208,96.107,574.076,570.07,0.0
